[{"OBJECT_NAME":"STARLINK-35570","OBJECT_ID":"2025-236E","EPOCH":"2026-03-09T07:56:43.050048","MEAN_MOTION":15.30200309,"ECCENTRICITY":0.00012741,"INCLINATION":53.1572,"RA_OF_ASC_NODE":105.2583,"ARG_OF_PERICENTER":88.6862,"MEAN_ANOMALY":271.4284,"EPHEMERIS_TYPE":0,"CLASSIFICATION_TYPE":"U","NORAD_CAT_ID":66090,"ELEMENT_SET_NO":999,"REV_AT_EPOCH":2289,"BSTAR":0.00078500439,"MEAN_MOTION_DOT":0.00022963,"MEAN_MOTION_DDOT":0},{"OBJECT_NAME":"COSMOS 1782","OBJECT_ID":"1986-074A","EPOCH":"2026-03-09T22:40:22.374624","MEAN_MOTION":15.33314157,"ECCENTRICITY":0.00054418,"INCLINATION":82.5242,"RA_OF_ASC_NODE":238.1482,"ARG_OF_PERICENTER":197.7479,"MEAN_ANOMALY":162.3574,"EPHEMERIS_TYPE":0,"CLASSIFICATION_TYPE":"U","NORAD_CAT_ID":16986,"ELEMENT_SET_NO":999,"REV_AT_EPOCH":13134,"BSTAR":0.00042191031,"MEAN_MOTION_DOT":0.00013623,"MEAN_MOTION_DDOT":0}]
